0 SL-14 DEB
1 19134U 78100G   13280.53755905  .00002793  00000-0  16165-1 0  9325
2 19134 082.3417 316.3207 0075257 090.6340 077.9008 12.58619618563074
0 SL-14 DEB
1 19134U 78100G   13282.83257096  .00005294  00000-0  30699-1 0  9336
2 19134 082.3420 314.8202 0073465 084.7196 037.5114 12.58633440563369
0 SL-14 DEB
1 19134U 78100G   13283.85297679  .00004249  00000-0  24640-1 0  9349
2 19134 082.3421 314.1531 0071555 081.1269 342.3760 12.58638660563495
0 SL-14 DEB
1 19134U 78100G   13286.07904523  .00003770  00000-0  21863-1 0  9352
2 19134 082.3417 312.6979 0069751 074.3788 350.7410 12.58654290563777
0 SL-14 DEB
1 19134U 78100G   13287.83928366  .00003264  00000-0  18921-1 0  9368
2 19134 082.3412 311.5466 0068667 068.8063 048.3204 12.58663352563994
0 SL-14 DEB
1 19134U 78100G   13289.51781479  .00003674  00000-0  21305-1 0  9373
2 19134 082.3406 310.4485 0068113 063.5317 095.6255 12.58676670564209
0 SL-14 DEB
1 19134U 78100G   13290.51619787  .00003505  00000-0  10000-3 0  9383
2 19134 082.3449 309.7936 0068115 062.2364 298.6148 12.58683491564337
0 SL-14 DEB
1 19134U 78100G   13292.03939531  .00003413  00000-0  19788-1 0  9382
2 19134 082.3404 308.7990 0067884 056.4480 003.0264 12.58694616564522
0 SL-14 DEB
1 19134U 78100G   13294.52751918  .00004104  00000-0  23793-1 0  9399
2 19134 082.3409 307.1713 0068241 048.8625 119.5549 12.58709592564830
